NORAD_CAT_ID,OBJECT_NAME,OBJECT_TYPE,EPOCH,MEAN_MOTION,ECCENTRICITY,INCLINATION,RA_OF_ASC_NODE,ARG_OF_PERICENTER,MEAN_ANOMALY,BSTAR,MEAN_MOTION_DOT,MEAN_MOTION_DDOT,TLE_LINE0,TLE_LINE1,TLE_LINE2,SEMIMAJOR_AXIS,PERIOD,APOGEE,PERIGEE,DECAYED
49454.0,STARLINK-3160,PAYLOAD,2022-07-22 21:08:38,15.08847277,0.0002420999999999,53.2181,50.9209,80.7419,279.3847,5.8511e-05,6.43e-06,0.0,0 STARLINK-3160,1 49454U 21104AY  22203.88099584  .00000643  00000-0  58511-4 0  9991,2 49454  53.2181  50.9209 0002421  80.7419 279.3847 15.08847277 38629,6917.858,95.437,541.398,538.048,0.0
49454.0,STARLINK-3160,PAYLOAD,2022-07-22 22:44:01,15.0884583,0.000245,53.2183,50.6235,79.9589,280.168,0.00010404,1.368e-05,0.0,0 STARLINK-3160,1 49454U 21104AY  22203.94723583  .00001368  00000-0  10404-3 0  9994,2 49454  53.2183  50.6235 0002450  79.9589 280.1680 15.08845830 39716,6917.863,95.437,541.422,538.033,0.0
49454.0,STARLINK-3160,PAYLOAD,2022-07-23 13:02:29,15.08838838,0.0002435999999999,53.2186,47.9474,79.4454,280.6812,0.00011646,1.566e-05,0.0,0 STARLINK-3160,1 49454U 21104AY  22204.54340032  .00001566  00000-0  11646-3 0  9994,2 49454  53.2186  47.9474 0002436  79.4454 280.6812 15.08838838 38725,6917.884,95.438,541.434,538.064,0.0
49454.0,STARLINK-3160,PAYLOAD,2022-07-23 20:59:26,15.08824185,0.0002352,53.2194,46.4601,78.5799,281.5458,2.8921e-05,1.72e-06,0.0,0 STARLINK-3160,1 49454U 21104AY  22204.87461341  .00000172  00000-0  28921-4 0  9994,2 49454  53.2194  46.4601 0002352  78.5799 281.5458 15.08824185 38770,6917.929,95.439,541.4209999999998,538.1669999999998,0.0
49454.0,STARLINK-3160,PAYLOAD,2022-07-24 00:10:12,15.08826513,0.0002353,53.2193,45.8655,78.4403,281.6853,-2.475e-05,-6.82e-06,0.0,0 STARLINK-3160,1 49454U 21104AY  22205.00709406 -.00000682  00000-0 -24750-4 0  9991,2 49454  53.2193  45.8655 0002353  78.4403 281.6853 15.08826513 38792,6917.922,95.438,541.414,538.159,0.0
49454.0,STARLINK-3160,PAYLOAD,2022-07-24 19:14:50,15.08816853,0.0002099,53.2191,42.2974,84.0292,276.0939,0.00032064,4.815e-05,0.0,0 STARLINK-3160,1 49454U 21104AY  22205.80197678  .00004815  00000-0  32064-3 0  9997,2 49454  53.2191  42.2974 0002099  84.0292 276.0939 15.08816853 38914,6917.951,95.439,541.268,538.364,0.0
49454.0,STARLINK-3160,PAYLOAD,2022-07-25 12:44:04,15.08837511,0.0002117,53.219,39.0258,81.7565,278.3667,0.0001002,1.307e-05,0.0,0 STARLINK-3160,1 49454U 21104AY  22206.53060639  .00001307  00000-0  10020-3 0  9995,2 49454  53.2190  39.0258 0002117  81.7565 278.3667 15.08837511 39020,6917.888000000001,95.438,541.2180000000002,538.288,0.0
49454.0,STARLINK-3160,PAYLOAD,2022-07-25 19:05:36,15.08842401,0.0002125,53.2189,37.8367,81.8838,278.2395,0.00012726,1.738e-05,0.0,0 STARLINK-3160,1 49454U 21104AY  22206.79556252  .00001738  00000-0  12726-3 0  9997,2 49454  53.2189  37.8367 0002125  81.8838 278.2395 15.08842401 39063,6917.873000000001,95.437,541.2080000000002,538.268,0.0
49454.0,STARLINK-3160,PAYLOAD,2022-07-26 06:13:19,15.08832403,0.0002064,53.217,35.7564,79.6915,280.4309,6.5622e-05,7.56e-06,0.0,0 STARLINK-3160,1 49454U 21104AY  22207.25925236  .00000756  00000-0  65622-4 0  9994,2 49454  53.2170  35.7564 0002064  79.6915 280.4309 15.08832403 40212,6917.904,95.438,541.196,538.341,0.0
49454.0,STARLINK-3160,PAYLOAD,2022-07-26 12:34:52,15.08831455,0.0002072,53.219,34.5663,82.0182,278.1045,4.985e-05,5.05e-06,0.0,0 STARLINK-3160,1 49454U 21104AY  22207.52421460  .00000505  00000-0  49850-4 0  9991,2 49454  53.2190  34.5663 0002072  82.0182 278.1045 15.08831455 39174,6917.906999999997,95.438,541.205,538.3380000000002,0.0
49454.0,STARLINK-3160,PAYLOAD,2022-07-26 18:56:24,15.08837595,0.0002114,53.2189,33.3768,81.8571,278.2661,3.2719e-05,2.32e-06,0.0,0 STARLINK-3160,1 49454U 21104AY  22207.78917256  .00000232  00000-0  32719-4 0  9995,2 49454  53.2189  33.3768 0002114  81.8571 278.2661 15.08837595 39212,6917.888000000001,95.438,541.215,538.29,0.0
49454.0,STARLINK-3160,PAYLOAD,2022-07-27 10:50:15,15.08845795,0.000205,53.219,30.4034,82.4011,277.7214,3.2045e-05,2.22e-06,0.0,0 STARLINK-3160,1 49454U 21104AY  22208.45156679  .00000222  00000-0  32045-4 0  9995,2 49454  53.2190  30.4034 0002050  82.4011 277.7214 15.08845795 40393,6917.863,95.437,541.146,538.31,0.0
49454.0,STARLINK-3160,PAYLOAD,2022-07-27 18:47:10,15.08849259,0.0002059,53.219,28.9166,83.1004,277.0222,6.3804e-05,7.28e-06,0.0,0 STARLINK-3160,1 49454U 21104AY  22208.78276266  .00000728  00000-0  63804-4 0  9994,2 49454  53.2190  28.9166 0002059  83.1004 277.0222 15.08849259 39366,6917.852,95.437,541.141,538.293,0.0
49454.0,STARLINK-3160,PAYLOAD,2022-07-28 12:16:25,15.08838966,0.0002065,53.219,25.6454,85.2278,274.895,6.7003e-05,7.78e-06,0.0,0 STARLINK-3160,1 49454U 21104AY  22209.51140812  .00000778  00000-0  67003-4 0  9993,2 49454  53.2190  25.6454 0002065  85.2278 274.8950 15.08838966 39471,6917.884,95.438,541.177,538.32,0.0
49454.0,STARLINK-3160,PAYLOAD,2022-07-28 15:27:12,15.08837908,0.0002054,53.2191,25.0506,85.3627,274.76,5.5644e-05,5.97e-06,0.0,0 STARLINK-3160,1 49454U 21104AY  22209.64388902  .00000597  00000-0  55644-4 0  9998,2 49454  53.2191  25.0506 0002054  85.3627 274.7600 15.08837908 40570,6917.887,95.438,541.173,538.331,0.0
49454.0,STARLINK-3160,PAYLOAD,2022-07-28 18:37:58,15.08837652,0.0002024,53.2192,24.4559,84.7037,275.4186,3.1946e-05,2.2e-06,0.0,0 STARLINK-3160,1 49454U 21104AY  22209.77636985  .00000220  00000-0  31946-4 0  9991,2 49454  53.2192  24.4559 0002024  84.7037 275.4186 15.08837652 39512,6917.888000000001,95.438,541.153,538.352,0.0
49454.0,STARLINK-3160,PAYLOAD,2022-07-29 10:31:49,15.08846279,0.0001973,53.2192,21.4823,90.25,269.8718,2.8063e-05,1.59e-06,0.0,0 STARLINK-3160,1 49454U 21104AY  22210.43876292  .00000159  00000-0  28063-4 0  9990,2 49454  53.2192  21.4823 0001973  90.2500 269.8718 15.08846279 40696,6917.861,95.437,541.091,538.361,0.0
49454.0,STARLINK-3160,PAYLOAD,2022-07-29 18:28:45,15.08835858,0.0001966,53.2197,19.9965,87.7846,272.3371,-5.5968e-05,-1.179e-05,0.0,0 STARLINK-3160,1 49454U 21104AY  22210.76997345 -.00001179  00000-0 -55968-4 0  9998,2 49454  53.2197  19.9965 0001966  87.7846 272.3371 15.08835858 40747,6917.893,95.438,541.118,538.398,0.0
49454.0,STARLINK-3160,PAYLOAD,2022-07-30 10:22:37,15.08830186,0.0001774999999999,53.2195,17.0224,87.0213,273.0983,3.023e-06,-2.4e-06,0.0,0 STARLINK-3160,1 49454U 21104AY  22211.43237644 -.00000240  00000-0  30230-5 0  9995,2 49454  53.2195  17.0224 0001775  87.0213 273.0983 15.08830186 39767,6917.91,95.438,541.003,538.547,0.0
49454.0,STARLINK-3160,PAYLOAD,2022-07-30 19:54:56,15.08832453,0.0001776999999999,53.2195,15.2384,85.8127,274.3068,1.8645e-05,9e-08,0.0,0 STARLINK-3160,1 49454U 21104AY  22211.82981658  .00000009  00000-0  18645-4 0  9996,2 49454  53.2195  15.2384 0001777  85.8127 274.3068 15.08832453 39820,6917.903,95.438,540.998,538.539,0.0
49454.0,STARLINK-3160,PAYLOAD,2022-07-31 03:51:51,15.08836214,0.0001751,53.2193,13.7516,85.1127,275.0065,8.2935e-06,-1.56e-06,0.0,0 STARLINK-3160,1 49454U 21104AY  22212.16101554 -.00000156  00000-0  82935-5 0  9991,2 49454  53.2193  13.7516 0001751  85.1127 275.0065 15.08836214 40953,6917.892,95.438,540.9680000000002,538.5459999999998,0.0
49454.0,STARLINK-3160,PAYLOAD,2022-07-31 10:13:24,15.08837446,0.0001733999999999,53.2194,12.5619,85.2036,274.9154,1.8123e-05,0.0,0.0,0 STARLINK-3160,1 49454U 21104AY  22212.42597504  .00000000  00000-0  18123-4 0  9998,2 49454  53.2194  12.5619 0001734  85.2036 274.9154 15.08837446 39915,6917.888000000001,95.438,540.953,538.554,0.0
49454.0,STARLINK-3160,PAYLOAD,2022-07-31 14:59:33,15.08836419,0.0001725,53.2193,11.6695,84.1881,275.9308,6.7079e-05,7.8e-06,0.0,0 STARLINK-3160,1 49454U 21104AY  22212.62469482  .00000780  00000-0  67079-4 0  9992,2 49454  53.2193  11.6695 0001725  84.1881 275.9308 15.08836419 39948,6917.891,95.438,540.95,538.563,0.0
49454.0,STARLINK-3160,PAYLOAD,2022-08-01 10:04:01,15.08972793,0.0003987,53.2192,8.1008,113.2357,246.9055,0.0012235,0.0001931,0.0,0 STARLINK-3160,1 49454U 21104AY  22213.41945999  .00019310  00000-0  12235-2 0  9993,2 49454  53.2192   8.1008 0003987 113.2357 246.9055 15.08972793 41148,6917.475,95.429,542.0980000000002,536.582,0.0
49454.0,STARLINK-3160,PAYLOAD,2022-08-01 18:01:06,15.08845793,0.0001703,53.2193,6.6149,84.3386,275.78,0.00012891,1.764e-05,0.0,0 STARLINK-3160,1 49454U 21104AY  22213.75076829  .00001764  00000-0  12891-3 0  9990,2 49454  53.2193   6.6149 0001703  84.3386 275.7800 15.08845793 40115,6917.863,95.437,540.906,538.55,0.0
49454.0,STARLINK-3160,PAYLOAD,2022-08-02 09:54:58,15.08837795,0.0001654,53.2189,3.6415,86.2466,273.8715,1.179e-05,-1e-06,0.0,0 STARLINK-3160,1 49454U 21104AY  22214.41317677 -.00000100  00000-0  11790-4 0  9995,2 49454  53.2189   3.6415 0001654  86.2466 273.8715 15.08837795 41295,6917.887,95.438,540.896,538.6080000000002,0.0
49454.0,STARLINK-3160,PAYLOAD,2022-08-03 09:45:46,15.08773452,0.000109,53.2199,359.1815,111.2092,248.9017,0.0010342,0.0001618,0.0,0 STARLINK-3160,1 49454U 21104AY  22215.40678474  .00016180  00000-0  10342-2 0  9994,2 49454  53.2199 359.1815 0001090 111.2092 248.9017 15.08773452 41441,6918.084,95.442,540.703,539.195,0.0
49454.0,STARLINK-3160,PAYLOAD,2022-08-03 14:31:53,15.08851478,0.0001733,53.2175,358.2887,87.874,272.2451,2.0642e-05,4.1e-07,0.0,0 STARLINK-3160,1 49454U 21104AY  22215.60548508  .00000041  00000-0  20642-4 0  9995,2 49454  53.2175 358.2887 0001733  87.8740 272.2451 15.08851478 41476,6917.845,95.437,540.909,538.511,0.0
49454.0,STARLINK-3160,PAYLOAD,2022-08-03 16:07:16,15.08850994,0.0001638,53.2176,357.991,89.3815,270.7364,4.0592e-05,3.58e-06,0.0,0 STARLINK-3160,1 49454U 21104AY  22215.67172413  .00000358  00000-0  40592-4 0  9997,2 49454  53.2176 357.9910 0001638  89.3815 270.7364 15.08850994 40404,6917.847,95.437,540.845,538.5790000000002,0.0
